{
  "type": "FeatureCollection",
  "features": [
    {
      "type": "Feature",
      "properties": {
        "norad_id": 36036,
        "name": "SMOS",
        "group": "resource",
        "lat": -62.51332775777302,
        "lon": -173.3664931220387,
        "alt_km": 767.1853247455356,
        "timestamp": "2025-12-10T23:33:12.483561+00:00",
        "meta_object_name": "SMOS",
        "meta_object_id": "2009-059A",
        "meta_epoch": "2025-12-10T12:10:24.899232",
        "meta_mean_motion": 14.39738297,
        "meta_eccentricity": 0.00011011,
        "meta_inclination": 98.4381,
        "meta_ra_of_asc_node": 169.5887,
        "meta_arg_of_pericenter": 84.6525,
        "meta_mean_anomaly": 275.4789,
        "meta_ephemeris_type": 0,
        "meta_classification_type": "U",
        "meta_norad_cat_id": 36036,
        "meta_element_set_no": 999,
        "meta_rev_at_epoch": 84630,
        "meta_bstar": 0.00021488399,
        "meta_mean_motion_dot": 6.3e-06,
        "meta_mean_motion_ddot": 0,
        "tle_line1": "1 36036U 09059A   25344.50723263  .00000630  00000+0  21488-3 0  9991",
        "tle_line2": "2 36036  98.4381 169.5887 0001101  84.6525 275.4789 14.39738297846306"
      },
      "geometry": {
        "type": "Point",
        "coordinates": [
          -173.3664931220387,
          -62.51332775777302
        ]
      }
    },
    {
      "type": "Feature",
      "properties": {
        "norad_id": 36110,
        "name": "YAOGAN-7",
        "group": "resource",
        "lat": -60.047350802879336,
        "lon": 32.563590789008444,
        "alt_km": 632.2881605856828,
        "timestamp": "2025-12-10T23:33:12.483570+00:00",
        "meta_object_name": "YAOGAN-7",
        "meta_object_id": "2009-069A",
        "meta_epoch": "2025-12-10T15:57:49.494816",
        "meta_mean_motion": 14.77727666,
        "meta_eccentricity": 0.00234245,
        "meta_inclination": 98.0302,
        "meta_ra_of_asc_node": 226.4296,
        "meta_arg_of_pericenter": 288.3627,
        "meta_mean_anomaly": 71.5036,
        "meta_ephemeris_type": 0,
        "meta_classification_type": "U",
        "meta_norad_cat_id": 36110,
        "meta_element_set_no": 999,
        "meta_rev_at_epoch": 86178,
        "meta_bstar": 0.00015818108,
        "meta_mean_motion_dot": 1.085e-05,
        "meta_mean_motion_ddot": 0,
        "tle_line1": "1 36110U 09069A   25344.66515619  .00001085  00000+0  15818-3 0  9991",
        "tle_line2": "2 36110  98.0302 226.4296 0023424 288.3627  71.5036 14.77727666861782"
      },
      "geometry": {
        "type": "Point",
        "coordinates": [
          32.563590789008444,
          -60.047350802879336
        ]
      }
    },
    {
      "type": "Feature",
      "properties": {
        "norad_id": 36605,
        "name": "TANDEM-X",
        "group": "resource",
        "lat": -44.770123084594076,
        "lon": 162.93361259292465,
        "alt_km": 516.1790040854685,
        "timestamp": "2025-12-10T23:33:12.483579+00:00",
        "meta_object_name": "TANDEM-X",
        "meta_object_id": "2010-030A",
        "meta_epoch": "2025-12-10T13:04:49.497312",
        "meta_mean_motion": 15.19152954,
        "meta_eccentricity": 0.0001855,
        "meta_inclination": 97.4451,
        "meta_ra_of_asc_node": 349.9572,
        "meta_arg_of_pericenter": 84.2987,
        "meta_mean_anomaly": 275.8459,
        "meta_ephemeris_type": 0,
        "meta_classification_type": "U",
        "meta_norad_cat_id": 36605,
        "meta_element_set_no": 999,
        "meta_rev_at_epoch": 85800,
        "meta_bstar": 0.00014449226,
        "meta_mean_motion_dot": 2.969e-05,
        "meta_mean_motion_ddot": 0,
        "tle_line1": "1 36605U 10030A   25344.54501733  .00002969  00000+0  14449-3 0  9990",
        "tle_line2": "2 36605  97.4451 349.9572 0001855  84.2987 275.8459 15.19152954858001"
      },
      "geometry": {
        "type": "Point",
        "coordinates": [
          162.93361259292465,
          -44.770123084594076
        ]
      }
    },
    {
      "type": "Feature",
      "properties": {
        "norad_id": 36795,
        "name": "CARTOSAT-2B",
        "group": "resource",
        "lat": 17.315340664158523,
        "lon": -143.48683252721762,
        "alt_km": 632.1227977395456,
        "timestamp": "2025-12-10T23:33:12.483588+00:00",
        "meta_object_name": "CARTOSAT-2B",
        "meta_object_id": "2010-035A",
        "meta_epoch": "2025-12-10T14:42:10.786176",
        "meta_mean_motion": 14.78783423,
        "meta_eccentricity": 0.00129221,
        "meta_inclination": 97.785,
        "meta_ra_of_asc_node": 33.7119,
        "meta_arg_of_pericenter": 83.4506,
        "meta_mean_anomaly": 276.8176,
        "meta_ephemeris_type": 0,
        "meta_classification_type": "U",
        "meta_norad_cat_id": 36795,
        "meta_element_set_no": 999,
        "meta_rev_at_epoch": 83198,
        "meta_bstar": 0.00010888351,
        "meta_mean_motion_dot": 7.51e-06,
        "meta_mean_motion_ddot": 0,
        "tle_line1": "1 36795U 10035A   25344.61262484  .00000751  00000+0  10888-3 0  9990",
        "tle_line2": "2 36795  97.7850  33.7119 0012922  83.4506 276.8176 14.78783423831987"
      },
      "geometry": {
        "type": "Point",
        "coordinates": [
          -143.48683252721762,
          17.315340664158523
        ]
      }
    },
    {
      "type": "Feature",
      "properties": {
        "norad_id": 36834,
        "name": "YAOGAN-10",
        "group": "resource",
        "lat": -25.215460646062635,
        "lon": -178.94088375400372,
        "alt_km": 621.0646925524807,
        "timestamp": "2025-12-10T23:33:12.483598+00:00",
        "meta_object_name": "YAOGAN-10",
        "meta_object_id": "2010-038A",
        "meta_epoch": "2025-12-10T15:12:32.196672",
        "meta_mean_motion": 14.84594196,
        "meta_eccentricity": 0.00014482,
        "meta_inclination": 97.914,
        "meta_ra_of_asc_node": 4.4698,
        "meta_arg_of_pericenter": 82.3444,
        "meta_mean_anomaly": 65.9021,
        "meta_ephemeris_type": 0,
        "meta_classification_type": "U",
        "meta_norad_cat_id": 36834,
        "meta_element_set_no": 999,
        "meta_rev_at_epoch": 82922,
        "meta_bstar": 0.00047944488,
        "meta_mean_motion_dot": 3.996e-05,
        "meta_mean_motion_ddot": 0,
        "tle_line1": "1 36834U 10038A   25344.63370598  .00003996  00000+0  47944-3 0  9992",
        "tle_line2": "2 36834  97.9140   4.4698 0001448  82.3444  65.9021 14.84594196829226"
      },
      "geometry": {
        "type": "Point",
        "coordinates": [
          -178.94088375400372,
          -25.215460646062635
        ]
      }
    },
    {
      "type": "Feature",
      "properties": {
        "norad_id": 37216,
        "name": "COSMO-SKYMED 4",
        "group": "resource",
        "lat": 35.56281980499917,
        "lon": -7.985849226261773,
        "alt_km": 619.6874695287297,
        "timestamp": "2025-12-10T23:33:12.483607+00:00",
        "meta_object_name": "COSMO-SKYMED 4",
        "meta_object_id": "2010-060A",
        "meta_epoch": "2025-12-10T14:48:18.241920",
        "meta_mean_motion": 14.82166292,
        "meta_eccentricity": 0.00014191,
        "meta_inclination": 97.8806,
        "meta_ra_of_asc_node": 165.9721,
        "meta_arg_of_pericenter": 79.8811,
        "meta_mean_anomaly": 280.2562,
        "meta_ephemeris_type": 0,
        "meta_classification_type": "U",
        "meta_norad_cat_id": 37216,
        "meta_element_set_no": 999,
        "meta_rev_at_epoch": 81663,
        "meta_bstar": 0.00016388594,
        "meta_mean_motion_dot": 1.253e-05,
        "meta_mean_motion_ddot": 0,
        "tle_line1": "1 37216U 10060A   25344.61687780  .00001253  00000+0  16389-3 0  9997",
        "tle_line2": "2 37216  97.8806 165.9721 0001419  79.8811 280.2562 14.82166292816639"
      },
      "geometry": {
        "type": "Point",
        "coordinates": [
          -7.985849226261773,
          35.56281980499917
        ]
      }
    },
    {
      "type": "Feature",
      "properties": {
        "norad_id": 37387,
        "name": "RESOURCESAT-2",
        "group": "resource",
        "lat": 47.47905812243651,
        "lon": -121.74716528230786,
        "alt_km": 815.2586751344934,
        "timestamp": "2025-12-10T23:33:12.483618+00:00",
        "meta_object_name": "RESOURCESAT-2",
        "meta_object_id": "2011-015A",
        "meta_epoch": "2025-12-10T14:29:26.504736",
        "meta_mean_motion": 14.21595911,
        "meta_eccentricity": 0.00065338,
        "meta_inclination": 98.788,
        "meta_ra_of_asc_node": 48.1651,
        "meta_arg_of_pericenter": 48.1494,
        "meta_mean_anomaly": 312.024,
        "meta_ephemeris_type": 0,
        "meta_classification_type": "U",
        "meta_norad_cat_id": 37387,
        "meta_element_set_no": 999,
        "meta_rev_at_epoch": 75938,
        "meta_bstar": 0.00012673428,
        "meta_mean_motion_dot": 2.33e-06,
        "meta_mean_motion_ddot": 0,
        "tle_line1": "1 37387U 11015A   25344.60377899  .00000233  00000+0  12673-3 0  9992",
        "tle_line2": "2 37387  98.7880  48.1651 0006533  48.1494 312.0240 14.21595911759384"
      },
      "geometry": {
        "type": "Point",
        "coordinates": [
          -121.74716528230786,
          47.47905812243651
        ]
      }
    }
  ]
}